[{"OBJECT_NAME":"STARLINK-30547","OBJECT_ID":"2023-156S","EPOCH":"2026-03-09T13:42:11.284416","MEAN_MOTION":15.30185923,"ECCENTRICITY":0.0001045,"INCLINATION":53.1606,"RA_OF_ASC_NODE":168.7607,"ARG_OF_PERICENTER":106.5336,"MEAN_ANOMALY":253.5779,"EPHEMERIS_TYPE":0,"CLASSIFICATION_TYPE":"U","NORAD_CAT_ID":58044,"ELEMENT_SET_NO":999,"REV_AT_EPOCH":13501,"BSTAR":-5.5712e-6,"MEAN_MOTION_DOT":-5.24e-6,"MEAN_MOTION_DDOT":0},{"OBJECT_NAME":"OBJECT BE","OBJECT_ID":"2025-313BE","EPOCH":"2026-03-09T16:43:59.380320","MEAN_MOTION":15.29801687,"ECCENTRICITY":0.00072083,"INCLINATION":97.3989,"RA_OF_ASC_NODE":145.3568,"ARG_OF_PERICENTER":335.3714,"MEAN_ANOMALY":24.7181,"EPHEMERIS_TYPE":0,"CLASSIFICATION_TYPE":"U","NORAD_CAT_ID":67482,"ELEMENT_SET_NO":999,"REV_AT_EPOCH":797,"BSTAR":0.0026504328,"MEAN_MOTION_DOT":0.00077178,"MEAN_MOTION_DDOT":0}]
