STARLINK-30547          
1 58044U 23156S   26068.57096394 -.00000524  00000+0 -55712-5 0  9990
2 58044  53.1606 168.7607 0001045 106.5336 253.5779 15.30185923135018
2025-313BE              
1 67482U 25313BE  26068.69721505  .00077178  00000+0  26504-2 0  9996
2 67482  97.3989 145.3568 0007208 335.3714  24.7181 15.29801687  7972
